{
  "type": "FeatureCollection",
  "features": [
    {
      "type": "Feature",
      "properties": {
        "norad_id": 31899,
        "name": "FENGYUN 1C DEB",
        "group": "fengyun-1c-debris",
        "lat": -52.59341880359627,
        "lon": 73.03318899578338,
        "alt_km": 1084.8577949222044,
        "timestamp": "2025-12-18T07:01:54.874343+00:00",
        "meta_object_name": "FENGYUN 1C DEB",
        "meta_object_id": "1999-025CLA",
        "meta_epoch": "2025-12-15T22:01:47.871552",
        "meta_mean_motion": 13.83525889,
        "meta_eccentricity": 0.01826858,
        "meta_inclination": 102.0836,
        "meta_ra_of_asc_node": 53.7231,
        "meta_arg_of_pericenter": 150.0114,
        "meta_mean_anomaly": 211.1643,
        "meta_ephemeris_type": 0,
        "meta_classification_type": "U",
        "meta_norad_cat_id": 31899,
        "meta_element_set_no": 999,
        "meta_rev_at_epoch": 67608,
        "meta_bstar": 0.0010397017,
        "meta_mean_motion_dot": 1.238e-05,
        "meta_mean_motion_ddot": 0,
        "tle_line1": "1 31899U 99025CLA 25349.91791518  .00001238  00000+0  10397-2 0  9994",
        "tle_line2": "2 31899 102.0836  53.7231 0182685 150.0114 211.1643 13.83525889676082"
      },
      "geometry": {
        "type": "Point",
        "coordinates": [
          73.03318899578338,
          -52.59341880359627
        ]
      }
    },
    {
      "type": "Feature",
      "properties": {
        "norad_id": 31901,
        "name": "FENGYUN 1C DEB",
        "group": "fengyun-1c-debris",
        "lat": -77.4710472769447,
        "lon": 90.1509689681957,
        "alt_km": 914.5995012525391,
        "timestamp": "2025-12-18T07:01:54.874353+00:00",
        "meta_object_name": "FENGYUN 1C DEB",
        "meta_object_id": "1999-025CLC",
        "meta_epoch": "2025-12-11T15:19:32.999232",
        "meta_mean_motion": 13.94142436,
        "meta_eccentricity": 0.01312062,
        "meta_inclination": 98.6009,
        "meta_ra_of_asc_node": 306.8787,
        "meta_arg_of_pericenter": 192.6168,
        "meta_mean_anomaly": 167.17,
        "meta_ephemeris_type": 0,
        "meta_classification_type": "U",
        "meta_norad_cat_id": 31901,
        "meta_element_set_no": 999,
        "meta_rev_at_epoch": 63392,
        "meta_bstar": 0.00012353957,
        "meta_mean_motion_dot": 1.36e-06,
        "meta_mean_motion_ddot": 0,
        "tle_line1": "1 31901U 99025CLC 25345.63857638  .00000136  00000+0  12354-3 0  9991",
        "tle_line2": "2 31901  98.6009 306.8787 0131206 192.6168 167.1700 13.94142436633925"
      },
      "geometry": {
        "type": "Point",
        "coordinates": [
          90.1509689681957,
          -77.4710472769447
        ]
      }
    },
    {
      "type": "Feature",
      "properties": {
        "norad_id": 31902,
        "name": "FENGYUN 1C DEB",
        "group": "fengyun-1c-debris",
        "lat": 27.72542039595396,
        "lon": 156.50033818811815,
        "alt_km": 689.6592345996951,
        "timestamp": "2025-12-18T07:01:54.874363+00:00",
        "meta_object_name": "FENGYUN 1C DEB",
        "meta_object_id": "1999-025CLD",
        "meta_epoch": "2025-12-14T10:15:01.409760",
        "meta_mean_motion": 14.23280437,
        "meta_eccentricity": 0.01808745,
        "meta_inclination": 98.5078,
        "meta_ra_of_asc_node": 328.249,
        "meta_arg_of_pericenter": 144.2655,
        "meta_mean_anomaly": 10.026,
        "meta_ephemeris_type": 0,
        "meta_classification_type": "U",
        "meta_norad_cat_id": 31902,
        "meta_element_set_no": 999,
        "meta_rev_at_epoch": 64815,
        "meta_bstar": 0.00025783004,
        "meta_mean_motion_dot": 6.48e-06,
        "meta_mean_motion_ddot": 0,
        "tle_line1": "1 31902U 99025CLD 25348.42709965  .00000648  00000+0  25783-3 0  9999",
        "tle_line2": "2 31902  98.5078 328.2490 0180874 144.2655  10.0260 14.23280437648154"
      },
      "geometry": {
        "type": "Point",
        "coordinates": [
          156.50033818811815,
          27.72542039595396
        ]
      }
    },
    {
      "type": "Feature",
      "properties": {
        "norad_id": 31903,
        "name": "FENGYUN 1C DEB",
        "group": "fengyun-1c-debris",
        "lat": 23.63197985849448,
        "lon": -22.72690435635406,
        "alt_km": 599.4229185160066,
        "timestamp": "2025-12-18T07:01:54.874372+00:00",
        "meta_object_name": "FENGYUN 1C DEB",
        "meta_object_id": "1999-025CLE",
        "meta_epoch": "2025-12-16T10:31:58.057824",
        "meta_mean_motion": 14.60519929,
        "meta_eccentricity": 0.01298516,
        "meta_inclination": 99.2741,
        "meta_ra_of_asc_node": 339.2989,
        "meta_arg_of_pericenter": 24.8233,
        "meta_mean_anomaly": 335.9136,
        "meta_ephemeris_type": 0,
        "meta_classification_type": "U",
        "meta_norad_cat_id": 31903,
        "meta_element_set_no": 999,
        "meta_rev_at_epoch": 97449,
        "meta_bstar": 0.00058390014,
        "meta_mean_motion_dot": 3.127e-05,
        "meta_mean_motion_ddot": 0,
        "tle_line1": "1 31903U 99025CLE 25350.43886641  .00003127  00000+0  58390-3 0  9996",
        "tle_line2": "2 31903  99.2741 339.2989 0129851  24.8233 335.9136 14.60519929974490"
      },
      "geometry": {
        "type": "Point",
        "coordinates": [
          -22.72690435635406,
          23.63197985849448
        ]
      }
    },
    {
      "type": "Feature",
      "properties": {
        "norad_id": 31905,
        "name": "FENGYUN 1C DEB",
        "group": "fengyun-1c-debris",
        "lat": -66.84050807155963,
        "lon": -9.012530845135355,
        "alt_km": 905.1792649133295,
        "timestamp": "2025-12-18T07:01:54.874382+00:00",
        "meta_object_name": "FENGYUN 1C DEB",
        "meta_object_id": "1999-025CLG",
        "meta_epoch": "2025-12-17T21:18:08.838720",
        "meta_mean_motion": 14.33121698,
        "meta_eccentricity": 0.01968583,
        "meta_inclination": 99.1505,
        "meta_ra_of_asc_node": 328.4234,
        "meta_arg_of_pericenter": 79.0692,
        "meta_mean_anomaly": 283.257,
        "meta_ephemeris_type": 0,
        "meta_classification_type": "U",
        "meta_norad_cat_id": 31905,
        "meta_element_set_no": 999,
        "meta_rev_at_epoch": 96698,
        "meta_bstar": 0.00047351199,
        "meta_mean_motion_dot": 1.559e-05,
        "meta_mean_motion_ddot": 0,
        "tle_line1": "1 31905U 99025CLG 25351.88760230  .00001559  00000+0  47351-3 0  9995",
        "tle_line2": "2 31905  99.1505 328.4234 0196858  79.0692 283.2570 14.33121698966988"
      },
      "geometry": {
        "type": "Point",
        "coordinates": [
          -9.012530845135355,
          -66.84050807155963
        ]
      }
    },
    {
      "type": "Feature",
      "properties": {
        "norad_id": 31906,
        "name": "FENGYUN 1C DEB",
        "group": "fengyun-1c-debris",
        "lat": 65.45772973641571,
        "lon": -35.06934183186476,
        "alt_km": 766.4058724288016,
        "timestamp": "2025-12-18T07:01:54.874392+00:00",
        "meta_object_name": "FENGYUN 1C DEB",
        "meta_object_id": "1999-025CLH",
        "meta_epoch": "2025-12-17T15:25:09.477120",
        "meta_mean_motion": 14.24695872,
        "meta_eccentricity": 0.00511878,
        "meta_inclination": 98.6925,
        "meta_ra_of_asc_node": 124.7118,
        "meta_arg_of_pericenter": 110.2154,
        "meta_mean_anomaly": 268.1338,
        "meta_ephemeris_type": 0,
        "meta_classification_type": "U",
        "meta_norad_cat_id": 31906,
        "meta_element_set_no": 999,
        "meta_rev_at_epoch": 95199,
        "meta_bstar": 0.0017875083,
        "meta_mean_motion_dot": 4.175e-05,
        "meta_mean_motion_ddot": 0,
        "tle_line1": "1 31906U 99025CLH 25351.64247080  .00004175  00000+0  17875-2 0  9997",
        "tle_line2": "2 31906  98.6925 124.7118 0051187 110.2154 268.1338 14.24695872951992"
      },
      "geometry": {
        "type": "Point",
        "coordinates": [
          -35.06934183186476,
          65.45772973641571
        ]
      }
    },
    {
      "type": "Feature",
      "properties": {
        "norad_id": 31910,
        "name": "FENGYUN 1C DEB",
        "group": "fengyun-1c-debris",
        "lat": 75.16378448048114,
        "lon": -17.557543392521236,
        "alt_km": 644.6777951330878,
        "timestamp": "2025-12-18T07:01:54.874402+00:00",
        "meta_object_name": "FENGYUN 1C DEB",
        "meta_object_id": "1999-025CLM",
        "meta_epoch": "2025-12-17T20:43:15.461760",
        "meta_mean_motion": 14.47683879,
        "meta_eccentricity": 0.02282306,
        "meta_inclination": 97.6653,
        "meta_ra_of_asc_node": 12.6118,
        "meta_arg_of_pericenter": 139.661,
        "meta_mean_anomaly": 222.1768,
        "meta_ephemeris_type": 0,
        "meta_classification_type": "U",
        "meta_norad_cat_id": 31910,
        "meta_element_set_no": 999,
        "meta_rev_at_epoch": 64443,
        "meta_bstar": 0.00051438497,
        "meta_mean_motion_dot": 2.591e-05,
        "meta_mean_motion_ddot": 0,
        "tle_line1": "1 31910U 99025CLM 25351.86337340  .00002591  00000+0  51438-3 0  9999",
        "tle_line2": "2 31910  97.6653  12.6118 0228230 139.6610 222.1768 14.47683879644430"
      },
      "geometry": {
        "type": "Point",
        "coordinates": [
          -17.557543392521236,
          75.16378448048114
        ]
      }
    }
  ]
}